#aV2024  2  5  0  0  0.00000000     288 DD+AD WGS84 FIT  NGA
## 2300  86400.00000000   300.00000000 60345 0.0000000000000
+   32     1  2  3  4  5  6  7  8  9 10 11 12 13 14 15 16 17
+         18 19 20 21 22 23 24 25 26 27 28 29 30 31 32  0  0
+          0  0  0  0  0  0  0  0  0  0  0  0  0  0  0  0  0
+          0  0  0  0  0  0  0  0  0  0  0  0  0  0  0  0  0
+          0  0  0  0  0  0  0  0  0  0  0  0  0  0  0  0  0
++         2  2  2  2  2  2  2  2  2  2  2  2  2  2  2  2  2
++         2  2  2  2  2  2  2  2  2  2  2  2  2  2  2  0  0
++         0  0  0  0  0  0  0  0  0  0  0  0  0  0  0  0  0
++         0  0  0  0  0  0  0  0  0  0  0  0  0  0  0  0  0
++         0  0  0  0  0  0  0  0  0  0  0  0  0  0  0  0  0
%c cc cc ccc ccc cccc cccc cccc cccc ccccc ccccc ccccc ccccc
%c cc cc ccc ccc cccc cccc cccc cccc ccccc ccccc ccccc ccccc
%f  0.0000000  0.000000000  0.00000000000  0.000000000000000
%f  0.0000000  0.000000000  0.00000000000  0.000000000000000
%i    0    0    0    0      0      0      0      0         0
%i    0    0    0    0      0      0      0      0         0
/*      NGA, ST. LOUIS,MO.                                  
/*   EPHEMERIS COMPUTED FROM 2 DAYS OF DATA                 
/*   EPOCHA v9 SMOOTHER                                     
/*   G2296 IERS2010 SATIGS SATAPC                           
*  2024  2  5 19 10  0.00000000
P  1  12109.772349 -23221.628600  -3525.253501    168.420570                    
V  1   3957.727112  -2313.262318  32208.405673      0.014104                    
P  2  15124.302867 -20966.000079   5983.532916   -490.000428                    
V  2   -779.495714   7446.432742  30853.217947      0.058359                    
P  3  14856.706537 -11981.047734 -18563.786287    174.133976                    
V  3  23224.526606   1818.962206  17659.652229      0.245961                    
P  4   5889.587906 -17581.421630 -18950.227942    284.347167                    
V  4  12064.428334  20945.509807 -15802.882072      0.095210                    
P  5 -24115.710883   6644.645765   8888.150180   -160.688210                    
V  5 -11539.679871  -2033.015022 -29136.400851     -0.014306                    
P  6 -12359.931202  -7672.574050 -22150.023022    418.445094                    
V  6  15039.303400 -23874.807584    -18.502318     -0.143781                    
P  7   1619.565224 -22343.563358  14379.433578    -54.871047                    
V  7  11391.010711 -13725.796492 -23879.522047     -0.091103                    
P  8  11952.631396  -9706.429106  21519.579477   -165.596615                    
V  8  14373.681245  23569.749550   3055.636080     -0.017541                    
P  9  -5565.088678 -23917.735508 -10128.956576     82.363334                    
V  9   8624.844966   9764.432699 -28079.603691      0.125597                    
P 10  18750.140308  10956.250456  15717.968864    -72.145836                    
V 10 -19435.475306    763.175210  22638.697396     -0.015109                    
P 11 -18324.705860   3883.281891 -18786.229180   -565.680836                    
V 11  12280.178284 -20561.002929 -16251.937168     -0.131663                    
P 12 -15919.103375  11273.530607 -18281.288507   -475.072910                    
V 12 -22415.505906  -3606.003134  17639.383927     -0.037371                    
P 13 -15758.470252   -767.315906  21198.754021    622.780918                    
V 13  -9110.316661 -25762.074686  -7417.856990      0.035786                    
P 14 -15049.083219 -13364.741284  17446.413649    317.949184                    
V 14  22145.829503   -680.474052  18420.288555      0.100796                    
P 15 -10934.452624  11196.413355  20958.764844    124.648617                    
V 15 -17179.623659 -21960.935416   2911.418491      0.039347                    
P 16  26556.713566    691.093644   3276.978517   -369.046168                    
V 16   4219.020716   2869.581308 -31136.578038      0.081541                    
P 17 -12614.931117 -23108.303564  -2382.440675    717.883381                    
V 17    890.390391  -4342.250606  31889.616247     -0.011070                    
P 18  -1646.746276  21703.168541  15107.459951   -548.984645                    
V 18 -11861.454291  15214.278846 -23348.405510     -0.085880                    
P 19 -16166.281862 -17825.345286 -11819.629452    436.564603                    
V 19  -3905.887163 -14157.653214  26775.245146      0.052921                    
P 20 -26056.062850    637.129133  -4568.794944    388.611249                    
V 20   5372.360276  -4024.573649 -30949.196779     -0.014212                    
P 21  16809.807302 -17079.308759  10783.315619    135.975415                    
V 21  -3158.768668  13296.697172  28170.347930     -0.013259                    
P 22 -20765.210173 -11117.990500  12409.854306     36.092394                    
V 22  15367.511840   -630.095369  26340.886657     -0.063022                    
P 23   6145.791874  14456.795381  21468.331678    149.987537                    
V 23 -27121.751399    535.729023   7227.909127      0.079116                    
P 24 -15310.437873  20265.684915   6588.284840   -426.765936                    
V 24    447.103808  -9827.274549  29858.314959     -0.064860                    
P 25  -3681.318467  15410.251744 -21629.151315    487.663856                    
V 25 -26733.594147   -751.661833   4349.079274      0.012265                    
P 26  25288.078846   4402.674678  -7671.953825    193.280215                    
V 26  -9317.945332   3651.594668 -28809.034773     -0.038565                    
P 27  17602.636906   4109.980803  19331.629380     -1.383516                    
V 27  11151.787538  22389.012856 -14285.179075     -0.034705                    
P 28  11321.321942  10594.389608 -21585.806273   -121.331229                    
V 28 -13798.022206  23625.478189   4357.987641     -0.123300                    
P 29   2331.841707  23897.303889 -11292.885857   -607.516975                    
V 29  -7813.897601 -12143.151328 -27525.139111      0.007121                    
P 30  -7388.360793 -16017.890928  19909.209041   -436.388204                    
V 30  14420.432142 -20684.241406 -11630.056686      0.048713                    
P 31  16898.798175    918.761342 -20769.932322   -227.664953                    
V 31 -13345.611215  22122.613998  -9581.565949     -0.001414                    
P 32  15888.525972  20657.169040  -5473.229547   -609.937088                    
V 32   1247.637971   7504.716868  30621.686469     -0.022632                    
EOF
